DMSP 5D-3 F17 (USA 191) 
1 29522U 06050A   26141.22862670  .00000007  00000+0  25891-4 0  9993
2 29522  98.7383 148.3504 0011008 128.5656 231.6506 14.14987901  8610
BADR-4                  
1 29526U 06051A   26141.23997565  .00000139  00000+0  00000+0 0  9997
2 29526   1.9374  81.3835 0004788 320.9373 309.3162  1.00274141 50999
NAVSTAR 59 (USA 192)    
1 29601U 06052A   26140.49716701  .00000008  00000+0  00000+0 0  9995
2 29601  54.9384 215.1038 0085680  90.5850 270.4658  2.00556589142859
WILDBLUE-1              
1 29643U 06054A   26141.18021284 -.00000056  00000+0  00000+0 0  9999
2 29643   2.7355  80.8021 0001387 338.6426 133.0584  1.00271107 53526
LAPAN-TUBSAT            
1 29709U 07001A   26141.25153358 -.00000250  00000+0 -21978-4 0  9990
2 29709  98.1344 139.8702 0010691 275.1901  84.8093 14.85918058 47158
THEMIS A                
1 30580U 07004A   26141.23091594 -.00000119  00000+0  63558-2 0  9994
2 30580   8.0039 112.0445 8374578 193.9231 100.2897  0.87844266 41046
SKYNET 5A               
1 30794U 07007B   26141.01630832 -.00000277  00000+0  00000+0 0  9999
2 30794   5.2330  74.0639 0004250 355.7868 269.8992  1.00269249 70421
THEMIS D                
1 30797U 07004D   26138.34521494 -.00000165  00000+0  00000+0 0  9990
2 30797   7.4227  81.7463 8337186 226.4982 231.2305  0.87589238 40817
THEMIS E                
1 30798U 07004E   26141.19811278 -.00000122  00000+0  00000+0 0  9993
2 30798   6.0496  99.7229 8445663 210.6209 177.4971  0.88042178 65687
ANIK F3                 
1 31102U 07009A   26141.17845574 -.00000008  00000+0  00000+0 0  9995
2 31102   1.1295  84.1312 0002541 329.6313 130.5957  1.00271252 46296
HAIYANG-1B              
1 31113U 07010A   26141.22547917  .00000049  00000+0  34542-4 0  9992
2 31113  98.3487 124.1184 0012233 282.9941  76.9876 14.31019445996770
SAUDISAT 3              
1 31118U 07012B   26140.58165442  .00000152  00000+0  32768-4 0  9999
2 31118  98.1442  90.9674 0013708 319.7679  40.2511 14.71406545 23689
SAUDICOMSAT 7           
1 31119U 07012C   26141.15437380  .00000297  00000+0  62666-4 0  9997
2 31119  98.3766 114.7358 0054403 281.5592  77.9507 14.66079024 18477
SAUDICOMSAT 6           
1 31121U 07012E   26141.13509108  .00000382  00000+0  82612-4 0  9994
2 31121  98.4083 108.1526 0072897  51.6870 309.0855 14.62516627 16237
SAUDICOMSAT 5           
1 31124U 07012H   26140.68827607  .00000292  00000+0  59257-4 0  9992
2 31124  98.3477 115.0136 0046658 210.7863 149.0603 14.68121378 19569
SAUDICOMSAT 3           
1 31125U 07012J   26140.35626161  .00000426  00000+0  77846-4 0  9992
2 31125  98.3131 115.2268 0040016 138.4850 221.9407 14.70655490 20732
SAUDICOMSAT 4           
1 31127U 07012L   26140.68874968  .00000360  00000+0  75949-4 0  9999
2 31127  98.3970 112.7022 0063119 345.5583  14.3813 14.64475497 17267
ASTRA 1L                
1 31306U 07016A   26140.98030887 -.00000191  00000+0  00000+0 0  9993
2 31306   1.2533  81.7556 0004945 348.0529 137.2111  1.00270692 44713
GALAXY 17 (G-17)        
1 31307U 07016B   26141.21787553 -.00000212  00000+0  00000+0 0  9994
2 31307   2.9060  80.2237 0004503 355.5028 156.5627  1.00268205 69534
YAOGAN-2                
1 31490U 07019A   26141.16109071  .00000476  00000+0  66180-4 0  9994
2 31490  98.2678   0.8593 0020661   5.0505 355.0911 14.82629037 23612
GLOBALSTAR M069         
1 31573U 07020C   26141.25626468 -.00000093  00000+0  43568-6 0  9995
2 31573  52.0049 328.3508 0002662  93.8930  77.6088 12.23470125875506
GLOBALSTAR M072         
1 31574U 07020D   26141.11356796 -.00000080  00000+0  60982-4 0  9998
2 31574  51.9901 172.3241 0001361 252.8512 114.3510 11.91658322871754
COSMO-SKYMED 1          
1 31598U 07023A   26141.26525473  .00001696  00000+0  15284-3 0  9990
2 31598  97.8856 332.8971 0001346  97.8082 262.3292 14.96953473 25769
TERRASAR-X              
1 31698U 07026A   26140.46118088  .00000196  00000+0  12516-4 0  9995
2 31698  97.4460 148.5621 0001865  92.2234 267.9214 15.19150954 49013
COSMOS 2428             
1 31792U 07029A   26141.17048664 -.00000244  00000+0 -10528-3 0  9990
2 31792  70.9396  51.2002 0007769 185.5436 174.5601 14.12936311974330
SAR-LUPE 2              
1 31797U 07030A   26141.26288869  .00019335  00000+0  39054-3 0  9994
2 31797  98.1017 242.4576 0012401 197.8499 162.2315 15.46471470 52770
WORLDVIEW-1 (WV-1)      
1 32060U 07041A   26141.24521573  .00004277  00000+0  17641-3 0  9997
2 32060  97.3926 261.3750 0003818 130.2295 229.9277 15.24584045 38776
INTELSAT 11 (IS-11)     
1 32253U 07044B   26141.17929529  .00000058  00000+0  00000+0 0  9999
2 32253   3.4972  78.9806 0000544 113.0027 355.8968  0.99047367 68189
WGS F1 (USA 195)        
1 32258U 07046A   26140.79211397 -.00000273  00000+0  00000+0 0  9990
2 32258   0.0657  94.2742 0000500 237.7891 149.0475  1.00267443 52060
NAVSTAR 60 (USA 196)    
1 32260U 07047A   26140.30335457 -.00000013  00000+0  00000+0 0  9997
2 32260  54.0757  81.2145 0165862  86.8522 275.0168  2.00556531136256
GLOBALSTAR M066         
1 32265U 07048C   26141.25714788 -.00000098  00000+0 -28118-4 0  9995
2 32265  51.9558 135.2203 0004923 344.6217  29.0734 12.30388758856913
