OBJECT_NAME,OBJECT_ID,EPOCH,MEAN_MOTION,ECCENTRICITY,INCLINATION,RA_OF_ASC_NODE,ARG_OF_PERICENTER,MEAN_ANOMALY,EPHEMERIS_TYPE,CLASSIFICATION_TYPE,NORAD_CAT_ID,ELEMENT_SET_NO,REV_AT_EPOCH,BSTAR,MEAN_MOTION_DOT,MEAN_MOTION_DDOT
DMSP 5D-3 F17 (USA 191),2006-050A,2026-05-21T05:29:13.346880,14.14987901,.00110084,98.7383,148.3504,128.5656,231.6506,0,U,29522,999,861,.25891421E-4,.7E-7,0
BADR-4,2006-051A,2026-05-21T05:45:33.896160,1.00274141,.00047888,1.9374,81.3835,320.9373,309.3162,0,U,29526,999,5099,0,.139E-5,0
NAVSTAR 59 (USA 192),2006-052A,2026-05-20T11:55:55.229664,2.00556589,.00856806,54.9384,215.1038,90.5850,270.4658,0,U,29601,999,14285,0,.8E-7,0
WILDBLUE-1,2006-054A,2026-05-21T04:19:30.389376,1.00271107,.00013876,2.7355,80.8021,338.6426,133.0584,0,U,29643,999,5352,0,-.56E-6,0
LAPAN-TUBSAT,2007-001A,2026-05-21T06:02:12.501312,14.85918058,.00106914,98.1344,139.8702,275.1901,84.8093,0,U,29709,999,4715,-.21977976E-4,-.25E-5,0
THEMIS A,2007-004A,2026-05-21T05:32:31.137216,0.87844266,.83745789,8.0039,112.0445,193.9231,100.2897,0,U,30580,999,4104,.63558128E-2,-.119E-5,0
SKYNET 5A,2007-007B,2026-05-21T00:23:29.038848,1.00269249,.00042508,5.2330,74.0639,355.7868,269.8992,0,U,30794,999,7042,0,-.277E-5,0
THEMIS D,2007-004D,2026-05-18T08:17:06.570816,0.87589238,.83371865,7.4227,81.7463,226.4982,231.2305,0,U,30797,999,4081,0,-.165E-5,0
THEMIS E,2007-004E,2026-05-21T04:45:16.944192,0.88042178,.84456632,6.0496,99.7229,210.6209,177.4971,0,U,30798,999,6568,0,-.122E-5,0
ANIK F3,2007-009A,2026-05-21T04:16:58.575936,1.00271252,.00025414,1.1295,84.1312,329.6313,130.5957,0,U,31102,999,4629,0,-.8E-7,0
HAIYANG-1B,2007-010A,2026-05-21T05:24:41.400288,14.31019445,.00122339,98.3487,124.1184,282.9941,76.9876,0,U,31113,999,99677,.34542398E-4,.49E-6,0
SAUDISAT 3,2007-012B,2026-05-20T13:57:34.941888,14.71406545,.00137089,98.1442,90.9674,319.7679,40.2511,0,U,31118,999,2368,.32767917E-4,.152E-5,0
SAUDICOMSAT 7,2007-012C,2026-05-21T03:42:17.896320,14.66079024,.00544031,98.3766,114.7358,281.5592,77.9507,0,U,31119,999,1847,.62665661E-4,.297E-5,0
SAUDICOMSAT 6,2007-012E,2026-05-21T03:14:31.869312,14.62516627,.00728974,98.4083,108.1526,51.6870,309.0855,0,U,31121,999,1623,.82611853E-4,.382E-5,0
SAUDICOMSAT 5,2007-012H,2026-05-20T16:31:07.052448,14.68121378,.00466586,98.3477,115.0136,210.7863,149.0603,0,U,31124,999,1956,.5925733E-4,.292E-5,0
SAUDICOMSAT 3,2007-012J,2026-05-20T08:33:01.003104,14.70655490,.00400169,98.3131,115.2268,138.4850,221.9407,0,U,31125,999,2073,.77845896E-4,.426E-5,0
SAUDICOMSAT 4,2007-012L,2026-05-20T16:31:47.972352,14.64475497,.00631196,98.3970,112.7022,345.5583,14.3813,0,U,31127,999,1726,.75948774E-4,.36E-5,0
ASTRA 1L,2007-016A,2026-05-20T23:31:38.686368,1.00270692,.00049451,1.2533,81.7556,348.0529,137.2111,0,U,31306,999,4471,0,-.191E-5,0
GALAXY 17 (G-17),2007-016B,2026-05-21T05:13:44.445792,1.00268205,.00045039,2.9060,80.2237,355.5028,156.5627,0,U,31307,999,6953,0,-.212E-5,0
YAOGAN-2,2007-019A,2026-05-21T03:51:58.237344,14.82629037,.00206612,98.2678,0.8593,5.0505,355.0911,0,U,31490,999,2361,.66179915E-4,.476E-5,0
GLOBALSTAR M069,2007-020C,2026-05-21T06:09:01.268352,12.23470125,.00026621,52.0049,328.3508,93.8930,77.6088,0,U,31573,999,87550,.435684E-6,-.93E-6,0
GLOBALSTAR M072,2007-020D,2026-05-21T02:43:32.271744,11.91658322,.00013619,51.9901,172.3241,252.8512,114.3510,0,U,31574,999,87175,.60981613E-4,-.8E-6,0
COSMO-SKYMED 1,2007-023A,2026-05-21T06:21:58.008672,14.96953473,.00013461,97.8856,332.8971,97.8082,262.3292,0,U,31598,999,2576,.15284182E-3,.1696E-4,0
TERRASAR-X,2007-026A,2026-05-20T11:04:06.028032,15.19150954,.00018653,97.4460,148.5621,92.2234,267.9214,0,U,31698,999,4901,.12516191E-4,.196E-5,0
COSMOS 2428,2007-029A,2026-05-21T04:05:30.045696,14.12936311,.00077695,70.9396,51.2002,185.5436,174.5601,0,U,31792,999,97433,-.1052771E-3,-.244E-5,0
SAR-LUPE 2,2007-030A,2026-05-21T06:18:33.582816,15.46471470,.00124016,98.1017,242.4576,197.8499,162.2315,0,U,31797,999,5277,.39054268E-3,.19335E-3,0
WORLDVIEW-1 (WV-1),2007-041A,2026-05-21T05:53:06.639072,15.24584045,.00038184,97.3926,261.3750,130.2295,229.9277,0,U,32060,999,3877,.17640841E-3,.4277E-4,0
INTELSAT 11 (IS-11),2007-044B,2026-05-21T04:18:11.113056,0.99047367,.00005441,3.4972,78.9806,113.0027,355.8968,0,U,32253,999,6818,0,.58E-6,0
WGS F1 (USA 195),2007-046A,2026-05-20T19:00:38.647008,1.00267443,.00005005,0.0657,94.2742,237.7891,149.0475,0,U,32258,999,5206,0,-.273E-5,0
NAVSTAR 60 (USA 196),2007-047A,2026-05-20T07:16:49.834848,2.00556531,.01658628,54.0757,81.2145,86.8522,275.0168,0,U,32260,999,13625,0,-.13E-6,0
GLOBALSTAR M066,2007-048C,2026-05-21T06:10:17.576832,12.30388758,.00049232,51.9558,135.2203,344.6217,29.0734,0,U,32265,999,85691,-.28117751E-4,-.98E-6,0
